CUPID                   
1 49264U 21088E   26068.66993977  .00009454  00000+0  38662-3 0  9991
2 49264  97.3985 131.0756 0013746  59.9938 300.2662 15.24473777245013
STARLINK-30581          
1 58096U 23160X   26068.09473080  .00000366  00000+0  22828-4 0  9993
2 58096  43.0042  81.3299 0001161 262.9325  97.1395 15.27573231132852
